[{"OBJECT_NAME":"STARLINK-36802","OBJECT_ID":"2026-038AA","EPOCH":"2026-03-08T14:00:01.999872","MEAN_MOTION":15.94674222,"ECCENTRICITY":0.00013624,"INCLINATION":97.2686,"RA_OF_ASC_NODE":77.8174,"ARG_OF_PERICENTER":103.9642,"MEAN_ANOMALY":179.1619,"EPHEMERIS_TYPE":0,"CLASSIFICATION_TYPE":"U","NORAD_CAT_ID":67985,"ELEMENT_SET_NO":999,"REV_AT_EPOCH":302,"BSTAR":-0.0044862793,"MEAN_MOTION_DOT":-0.0168464,"MEAN_MOTION_DDOT":0.00081316098},{"OBJECT_NAME":"STARLINK-36535","OBJECT_ID":"2026-039A","EPOCH":"2026-03-08T14:00:01.999872","MEAN_MOTION":15.87074111,"ECCENTRICITY":0.00013509,"INCLINATION":42.9978,"RA_OF_ASC_NODE":61.7524,"ARG_OF_PERICENTER":267.268,"MEAN_ANOMALY":295.6218,"EPHEMERIS_TYPE":0,"CLASSIFICATION_TYPE":"U","NORAD_CAT_ID":67986,"ELEMENT_SET_NO":999,"REV_AT_EPOCH":270,"BSTAR":-0.0063440914,"MEAN_MOTION_DOT":-0.01506423,"MEAN_MOTION_DDOT":0},{"OBJECT_NAME":"STARLINK-36744","OBJECT_ID":"2026-039B","EPOCH":"2026-03-08T14:00:01.999872","MEAN_MOTION":15.87255337,"ECCENTRICITY":0.00015812,"INCLINATION":42.9977,"RA_OF_ASC_NODE":61.7441,"ARG_OF_PERICENTER":269.2431,"MEAN_ANOMALY":296.8105,"EPHEMERIS_TYPE":0,"CLASSIFICATION_TYPE":"U","NORAD_CAT_ID":67987,"ELEMENT_SET_NO":999,"REV_AT_EPOCH":270,"BSTAR":-0.0062420718,"MEAN_MOTION_DOT":-0.01497106,"MEAN_MOTION_DDOT":0},{"OBJECT_NAME":"STARLINK-36734","OBJECT_ID":"2026-039C","EPOCH":"2026-03-08T14:00:01.999872","MEAN_MOTION":15.87407598,"ECCENTRICITY":0.000149,"INCLINATION":42.9977,"RA_OF_ASC_NODE":61.7353,"ARG_OF_PERICENTER":269.1187,"MEAN_ANOMALY":300.3949,"EPHEMERIS_TYPE":0,"CLASSIFICATION_TYPE":"U","NORAD_CAT_ID":67988,"ELEMENT_SET_NO":999,"REV_AT_EPOCH":270,"BSTAR":-0.0062192454,"MEAN_MOTION_DOT":-0.01502286,"MEAN_MOTION_DDOT":0},{"OBJECT_NAME":"STARLINK-36957","OBJECT_ID":"2026-039D","EPOCH":"2026-03-08T14:00:01.999872","MEAN_MOTION":15.87582874,"ECCENTRICITY":0.00015636,"INCLINATION":42.9974,"RA_OF_ASC_NODE":61.7268,"ARG_OF_PERICENTER":270.4114,"MEAN_ANOMALY":302.2482,"EPHEMERIS_TYPE":0,"CLASSIFICATION_TYPE":"U","NORAD_CAT_ID":67989,"ELEMENT_SET_NO":999,"REV_AT_EPOCH":270,"BSTAR":-0.0061150928,"MEAN_MOTION_DOT":-0.01461509,"MEAN_MOTION_DDOT":0},{"OBJECT_NAME":"STARLINK-36951","OBJECT_ID":"2026-039E","EPOCH":"2026-03-08T14:00:01.999872","MEAN_MOTION":15.87732202,"ECCENTRICITY":0.00015379,"INCLINATION":42.9975,"RA_OF_ASC_NODE":61.7183,"ARG_OF_PERICENTER":268.9281,"MEAN_ANOMALY":307.1294,"EPHEMERIS_TYPE":0,"CLASSIFICATION_TYPE":"U","NORAD_CAT_ID":67990,"ELEMENT_SET_NO":999,"REV_AT_EPOCH":270,"BSTAR":-0.0060719583,"MEAN_MOTION_DOT":-0.01462045,"MEAN_MOTION_DDOT":0},{"OBJECT_NAME":"STARLINK-36941","OBJECT_ID":"2026-039F","EPOCH":"2026-03-08T14:00:01.999872","MEAN_MOTION":15.87926595,"ECCENTRICITY":0.00015208,"INCLINATION":42.9974,"RA_OF_ASC_NODE":61.7106,"ARG_OF_PERICENTER":261.2034,"MEAN_ANOMALY":317.8099,"EPHEMERIS_TYPE":0,"CLASSIFICATION_TYPE":"U","NORAD_CAT_ID":67991,"ELEMENT_SET_NO":999,"REV_AT_EPOCH":270,"BSTAR":-0.0059767609,"MEAN_MOTION_DOT":-0.01454486,"MEAN_MOTION_DDOT":0},{"OBJECT_NAME":"STARLINK-36950","OBJECT_ID":"2026-039G","EPOCH":"2026-03-08T14:00:01.999872","MEAN_MOTION":15.88067103,"ECCENTRICITY":0.00016214,"INCLINATION":42.9974,"RA_OF_ASC_NODE":61.7022,"ARG_OF_PERICENTER":262.6942,"MEAN_ANOMALY":319.6396,"EPHEMERIS_TYPE":0,"CLASSIFICATION_TYPE":"U","NORAD_CAT_ID":67992,"ELEMENT_SET_NO":999,"REV_AT_EPOCH":270,"BSTAR":-0.0059229388,"MEAN_MOTION_DOT":-0.01452134,"MEAN_MOTION_DDOT":0},{"OBJECT_NAME":"STARLINK-36975","OBJECT_ID":"2026-039H","EPOCH":"2026-03-08T14:00:01.999872","MEAN_MOTION":15.88225929,"ECCENTRICITY":0.00015734,"INCLINATION":42.9972,"RA_OF_ASC_NODE":61.6942,"ARG_OF_PERICENTER":269.0292,"MEAN_ANOMALY":316.4898,"EPHEMERIS_TYPE":0,"CLASSIFICATION_TYPE":"U","NORAD_CAT_ID":67993,"ELEMENT_SET_NO":999,"REV_AT_EPOCH":270,"BSTAR":-0.005850879,"MEAN_MOTION_DOT":-0.0144683,"MEAN_MOTION_DDOT":0},{"OBJECT_NAME":"STARLINK-36993","OBJECT_ID":"2026-039J","EPOCH":"2026-03-08T14:00:01.999872","MEAN_MOTION":15.88371626,"ECCENTRICITY":0.00015725,"INCLINATION":42.9973,"RA_OF_ASC_NODE":61.6861,"ARG_OF_PERICENTER":270.589,"MEAN_ANOMALY":318.2667,"EPHEMERIS_TYPE":0,"CLASSIFICATION_TYPE":"U","NORAD_CAT_ID":67994,"ELEMENT_SET_NO":999,"REV_AT_EPOCH":270,"BSTAR":-0.0058207217,"MEAN_MOTION_DOT":-0.01449613,"MEAN_MOTION_DDOT":0},{"OBJECT_NAME":"STARLINK-36968","OBJECT_ID":"2026-039K","EPOCH":"2026-03-08T14:00:01.999872","MEAN_MOTION":15.88572816,"ECCENTRICITY":0.00015709,"INCLINATION":42.9973,"RA_OF_ASC_NODE":61.6671,"ARG_OF_PERICENTER":265.4168,"MEAN_ANOMALY":330.8982,"EPHEMERIS_TYPE":0,"CLASSIFICATION_TYPE":"U","NORAD_CAT_ID":67995,"ELEMENT_SET_NO":999,"REV_AT_EPOCH":270,"BSTAR":-0.0058007828,"MEAN_MOTION_DOT":-0.01458151,"MEAN_MOTION_DDOT":0},{"OBJECT_NAME":"STARLINK-36979","OBJECT_ID":"2026-039L","EPOCH":"2026-03-08T14:00:01.999872","MEAN_MOTION":15.88420153,"ECCENTRICITY":0.00016571,"INCLINATION":42.9971,"RA_OF_ASC_NODE":61.6749,"ARG_OF_PERICENTER":268.7919,"MEAN_ANOMALY":324.3121,"EPHEMERIS_TYPE":0,"CLASSIFICATION_TYPE":"U","NORAD_CAT_ID":67996,"ELEMENT_SET_NO":999,"REV_AT_EPOCH":270,"BSTAR":-0.0058413524,"MEAN_MOTION_DOT":-0.0145723,"MEAN_MOTION_DDOT":0},{"OBJECT_NAME":"STARLINK-36994","OBJECT_ID":"2026-039M","EPOCH":"2026-03-08T14:00:01.999872","MEAN_MOTION":15.88853599,"ECCENTRICITY":0.00016133,"INCLINATION":42.9972,"RA_OF_ASC_NODE":61.6497,"ARG_OF_PERICENTER":262.9846,"MEAN_ANOMALY":340.0416,"EPHEMERIS_TYPE":0,"CLASSIFICATION_TYPE":"U","NORAD_CAT_ID":67997,"ELEMENT_SET_NO":999,"REV_AT_EPOCH":270,"BSTAR":-0.0057612316,"MEAN_MOTION_DOT":-0.01467625,"MEAN_MOTION_DDOT":0},{"OBJECT_NAME":"STARLINK-36988","OBJECT_ID":"2026-039N","EPOCH":"2026-03-08T14:00:01.999872","MEAN_MOTION":15.88695929,"ECCENTRICITY":0.00016273,"INCLINATION":42.9974,"RA_OF_ASC_NODE":61.6581,"ARG_OF_PERICENTER":268.0771,"MEAN_ANOMALY":331.735,"EPHEMERIS_TYPE":0,"CLASSIFICATION_TYPE":"U","NORAD_CAT_ID":67998,"ELEMENT_SET_NO":999,"REV_AT_EPOCH":270,"BSTAR":-0.0057473238,"MEAN_MOTION_DOT":-0.01454437,"MEAN_MOTION_DDOT":0},{"OBJECT_NAME":"STARLINK-36926","OBJECT_ID":"2026-039P","EPOCH":"2026-03-08T14:00:01.999872","MEAN_MOTION":15.88995242,"ECCENTRICITY":0.00017469,"INCLINATION":42.9973,"RA_OF_ASC_NODE":61.6418,"ARG_OF_PERICENTER":265.5524,"MEAN_ANOMALY":340.7643,"EPHEMERIS_TYPE":0,"CLASSIFICATION_TYPE":"U","NORAD_CAT_ID":67999,"ELEMENT_SET_NO":999,"REV_AT_EPOCH":270,"BSTAR":-0.0057231618,"MEAN_MOTION_DOT":-0.01468515,"MEAN_MOTION_DDOT":0},{"OBJECT_NAME":"STARLINK-36931","OBJECT_ID":"2026-039Q","EPOCH":"2026-03-08T14:00:01.999872","MEAN_MOTION":15.89160233,"ECCENTRICITY":0.00016843,"INCLINATION":42.9974,"RA_OF_ASC_NODE":61.6345,"ARG_OF_PERICENTER":266.5952,"MEAN_ANOMALY":342.6154,"EPHEMERIS_TYPE":0,"CLASSIFICATION_TYPE":"U","NORAD_CAT_ID":68000,"ELEMENT_SET_NO":999,"REV_AT_EPOCH":270,"BSTAR":-0.0056371808,"MEAN_MOTION_DOT":-0.01459991,"MEAN_MOTION_DDOT":0}]
