STARLINK-36802          
1 67985U 26038AA  26067.58335648 -.01684640  81316-3 -44863-2 0  9997
2 67985  97.2686  77.8174 0001362 103.9642 179.1619 15.94674222  3027
STARLINK-36535          
1 67986U 26039A   26067.58335648 -.01506423  00000+0 -63441-2 0  9991
2 67986  42.9978  61.7524 0001350 267.2680 295.6218 15.87074111  2709
STARLINK-36744          
1 67987U 26039B   26067.58335648 -.01497106  00000+0 -62421-2 0  9996
2 67987  42.9977  61.7441 0001581 269.2431 296.8105 15.87255337  2708
STARLINK-36734          
1 67988U 26039C   26067.58335648 -.01502286  00000+0 -62192-2 0  9998
2 67988  42.9977  61.7353 0001490 269.1187 300.3949 15.87407598  2702
STARLINK-36957          
1 67989U 26039D   26067.58335648 -.01461509  00000+0 -61151-2 0  9995
2 67989  42.9974  61.7268 0001563 270.4114 302.2482 15.87582874  2705
STARLINK-36951          
1 67990U 26039E   26067.58335648 -.01462045  00000+0 -60720-2 0  9994
2 67990  42.9975  61.7183 0001537 268.9281 307.1294 15.87732202  2709
STARLINK-36941          
1 67991U 26039F   26067.58335648 -.01454486  00000+0 -59768-2 0  9995
2 67991  42.9974  61.7106 0001520 261.2034 317.8099 15.87926595  2709
STARLINK-36950          
1 67992U 26039G   26067.58335648 -.01452134  00000+0 -59229-2 0  9996
2 67992  42.9974  61.7022 0001621 262.6942 319.6396 15.88067103  2704
STARLINK-36975          
1 67993U 26039H   26067.58335648 -.01446830  00000+0 -58509-2 0  9993
2 67993  42.9972  61.6942 0001573 269.0292 316.4898 15.88225929  2702
STARLINK-36993          
1 67994U 26039J   26067.58335648 -.01449613  00000+0 -58207-2 0  9991
2 67994  42.9973  61.6861 0001572 270.5890 318.2667 15.88371626  2704
STARLINK-36968          
1 67995U 26039K   26067.58335648 -.01458151  00000+0 -58008-2 0  9998
2 67995  42.9973  61.6671 0001570 265.4168 330.8982 15.88572816  2707
STARLINK-36979          
1 67996U 26039L   26067.58335648 -.01457230  00000+0 -58414-2 0  9997
2 67996  42.9971  61.6749 0001657 268.7919 324.3121 15.88420153  2707
STARLINK-36994          
1 67997U 26039M   26067.58335648 -.01467625  00000+0 -57612-2 0  9996
2 67997  42.9972  61.6497 0001613 262.9846 340.0416 15.88853599  2702
STARLINK-36988          
1 67998U 26039N   26067.58335648 -.01454437  00000+0 -57473-2 0  9999
2 67998  42.9974  61.6581 0001627 268.0771 331.7350 15.88695929  2703
STARLINK-36926          
1 67999U 26039P   26067.58335648 -.01468515  00000+0 -57232-2 0  9995
2 67999  42.9973  61.6418 0001746 265.5524 340.7643 15.88995242  2708
STARLINK-36931          
1 68000U 26039Q   26067.58335648 -.01459991  00000+0 -56372-2 0  9991
2 68000  42.9974  61.6345 0001684 266.5952 342.6154 15.89160233  2702
